$$SOE
2459580.500000000, A.D. 2022-Jan-01 00:00:00.0000, 1.955505767749593E+08, 2.789455928293228E+08, -2.088958836339977E+07,
2459587.500000000, A.D. 2022-Jan-08 00:00:00.0000, 1.866406294625681E+08, 2.868541981254761E+08, -2.181187490321301E+07,
2459594.500000000, A.D. 2022-Jan-15 00:00:00.0000, 1.775059751919154E+08, 2.944174902782842E+08, -2.270790662316650E+07,
2459601.500000000, A.D. 2022-Jan-22 00:00:00.0000, 1.681606020155811E+08, 3.016313222726314E+08, -2.357698756435938E+07,
2459608.500000000, A.D. 2022-Jan-29 00:00:00.0000, 1.586183715952855E+08, 3.084920948019161E+08, -2.441847412929676E+07,
2459615.500000000, A.D. 2022-Feb-05 00:00:00.0000, 1.488930006295508E+08, 3.149967321707529E+08, -2.523177317686719E+07,
2459622.500000000, A.D. 2022-Feb-12 00:00:00.0000, 1.389980464333319E+08, 3.211426574331105E+08, -2.601634038496247E+07,
2459629.500000000, A.D. 2022-Feb-19 00:00:00.0000, 1.289468952189612E+08, 3.269277692356544E+08, -2.677167857860786E+07,
2459636.500000000, A.D. 2022-Feb-26 00:00:00.0000, 1.187527516368657E+08, 3.323504197281129E+08, -2.749733597279747E+07,
2459643.500000000, A.D. 2022-Mar-05 00:00:00.0000, 1.084286296087828E+08, 3.374093929977643E+08, -2.819290440453026E+07,
2459650.500000000, A.D. 2022-Mar-12 00:00:00.0000, 9.798734455339934E+07, 3.421038840237802E+08, -2.885801758829005E+07,
2459657.500000000, A.D. 2022-Mar-19 00:00:00.0000, 8.744150695793021E+07, 3.464334782288593E+08, -2.949234940661879E+07,
2459664.500000000, A.D. 2022-Mar-26 00:00:00.0000, 7.680351720508757E+07, 3.503981316607659E+08, -3.009561224464084E+07,
2459671.500000000, A.D. 2022-Apr-02 00:00:00.0000, 6.608556161515490E+07, 3.539981517769120E+08, -3.066755538460310E+07,
2459678.500000000, A.D. 2022-Apr-09 00:00:00.0000, 5.529960987209987E+07, 3.572341788577383E+08, -3.120796348935328E+07,
2459685.500000000, A.D. 2022-Apr-16 00:00:00.0000, 4.445741409335300E+07, 3.601071687181558E+08, -3.171665515794294E+07,
2459692.500000000, A.D. 2022-Apr-23 00:00:00.0000, 3.357050818521442E+07, 3.626183778102228E+08, -3.219348135200608E+07,
2459699.500000000, A.D. 2022-Apr-30 00:00:00.0000, 2.265020552990735E+07, 3.647693484670026E+08, -3.263832370621240E+07,
2459706.500000000, A.D. 2022-May-07 00:00:00.0000, 1.170759798081546E+07, 3.665618923069501E+08, -3.305109316500020E+07,
2459713.500000000, A.D. 2022-May-14 00:00:00.0000, 7.535574791692778E+05, 3.679980748369862E+08, -3.343172882716297E+07,
2459720.500000000, A.D. 2022-May-21 00:00:00.0000, -1.020126180498445E+07, 3.690802020027570E+08, -3.378019675131729E+07,
2459727.500000000, A.D. 2022-May-28 00:00:00.0000, -2.114642135086679E+07, 3.698108077104580E+08, -3.409648875634648E+07,
2459734.500000000, A.D. 2022-Jun-04 00:00:00.0000, -3.207169596773201E+07, 3.701926419902467E+08, -3.438062126738183E+07,
2459741.500000000, A.D. 2022-Jun-11 00:00:00.0000, -4.296707118931973E+07, 3.702286597853382E+08, -3.463263421994004E+07,
2459748.500000000, A.D. 2022-Jun-18 00:00:00.0000, -5.382274039437018E+07, 3.699220103605973E+08, -3.485259002399425E+07,
2459755.500000000, A.D. 2022-Jun-25 00:00:00.0000, -6.462910167068377E+07, 3.692760272767770E+08, -3.504057259246679E+07,
2459762.500000000, A.D. 2022-Jul-02 00:00:00.0000, -7.537675433187121E+07, 3.682942188430721E+08, -3.519668645066372E+07,
2459769.500000000, A.D. 2022-Jul-09 00:00:00.0000, -8.605649473660955E+07, 3.669802592029461E+08, -3.532105594669873E+07,
2459776.500000000, A.D. 2022-Jul-16 00:00:00.0000, -9.665931150312549E+07, 3.653379811153244E+08, -3.541382446835999E+07,
2459783.500000000, A.D. 2022-Jul-23 00:00:00.0000, -1.071763823498551E+08, 3.633713704899761E+08, -3.547515345793568E+07,
2459790.500000000, A.D. 2022-Jul-30 00:00:00.0000, -1.175990725047568E+08, 3.610845592984917E+08, -3.550522150477445E+07,
2459797.500000000, A.D. 2022-Aug-06 00:00:00.0000, -1.279189311145022E+08, 3.584818174828913E+08, -3.550422379000430E+07,
2459804.500000000, A.D. 2022-Aug-13 00:00:00.0000, -1.381276865045455E+08, 3.555675466003282E+08, -3.547237158265239E+07,
2459811.500000000, A.D. 2022-Aug-20 00:00:00.0000, -1.482172418780035E+08, 3.523462746823295E+08, -3.540989168351808E+07,
2459818.500000000, A.D. 2022-Aug-27 00:00:00.0000, -1.581796714012596E+08, 3.488226515580587E+08, -3.531702587983531E+07,
2459825.500000000, A.D. 2022-Sep-03 00:00:00.0000, -1.680072164447974E+08, 3.450014445055013E+08, -3.519403043936601E+07,
2459832.500000000, A.D. 2022-Sep-10 00:00:00.0000, -1.776922819071657E+08, 3.408875342296831E+08, -3.504117564731754E+07,
2459839.500000000, A.D. 2022-Sep-17 00:00:00.0000, -1.872274326123177E+08, 3.364859111450453E+08, -3.485874538708419E+07,
2459846.500000000, A.D. 2022-Sep-24 00:00:00.0000, -1.966053897387230E+08, 3.318016718950129E+08, -3.464703677399907E+07,
2459853.500000000, A.D. 2022-Oct-01 00:00:00.0000, -2.058190270555914E+08, 3.268400160733765E+08, -3.440635986604440E+07,
2459860.500000000, A.D. 2022-Oct-08 00:00:00.0000, -2.148613665707462E+08, 3.216062436563216E+08, -3.413703744607311E+07,
2459867.500000000, A.D. 2022-Oct-15 00:00:00.0000, -2.237255745327910E+08, 3.161057543306288E+08, -3.383940469173911E+07,
2459874.500000000, A.D. 2022-Oct-22 00:00:00.0000, -2.324049599782342E+08, 3.103440470217534E+08, -3.351380867038459E+07,
2459881.500000000, A.D. 2022-Oct-29 00:00:00.0000, -2.408929733299847E+08, 3.043267170117180E+08, -3.316060809811325E+07,
2459888.500000000, A.D. 2022-Nov-05 00:00:00.0000, -2.491832029560824E+08, 2.980594533676546E+08, -3.278017332923390E+07,
2459895.500000000, A.D. 2022-Nov-12 00:00:00.0000, -2.572693716660146E+08, 2.915480379354687E+08, -3.237288629213922E+07,
2459902.500000000, A.D. 2022-Nov-19 00:00:00.0000, -2.651453338721819E+08, 2.847983449341066E+08, -3.193914038338910E+07,
2459909.500000000, A.D. 2022-Nov-26 00:00:00.0000, -2.728050731607748E+08, 2.778163407404078E+08, -3.147934037546588E+07,
2459916.500000000, A.D. 2022-Dec-03 00:00:00.0000, -2.802427001132214E+08, 2.706080838403622E+08, -3.099390235332924E+07,
2459923.500000000, A.D. 2022-Dec-10 00:00:00.0000, -2.874524503401377E+08, 2.631797249537663E+08, -3.048325368154177E+07,
2459930.500000000, A.D. 2022-Dec-17 00:00:00.0000, -2.944286827104573E+08, 2.555375072962984E+08, -2.994783300546281E+07,
2459937.500000000, A.D. 2022-Dec-24 00:00:00.0000, -3.011658776736137E+08, 2.476877669026377E+08, -2.938809030111506E+07,
2459944.500000000, A.D. 2022-Dec-31 00:00:00.0000, -3.076586353243126E+08, 2.396369331077668E+08, -2.880448699690010E+07,
2459951.500000000, A.D. 2023-Jan-07 00:00:00.0000, -3.139016730947709E+08, 2.313915301384122E+08, -2.819749609895650E+07,
2459958.500000000, A.D. 2023-Jan-14 00:00:00.0000, -3.198898250510607E+08, 2.229581803020257E+08, -2.756760209876833E+07,
2459965.500000000, A.D. 2023-Jan-21 00:00:00.0000, -3.256180434481542E+08, 2.143436055943955E+08, -2.691530086319532E+07,
2459972.500000000, A.D. 2023-Jan-28 00:00:00.0000, -3.310813988800498E+08, 2.055546275225959E+08, -2.624109985807365E+07,
2459979.500000000, A.D. 2023-Feb-04 00:00:00.0000, -3.362750792391111E+08, 1.965981681584410E+08, -2.554551843709738E+07,
2459986.500000000, A.D. 2023-Feb-11 00:00:00.0000, -3.411943892910467E+08, 1.874812522197164E+08, -2.482908804689340E+07,
2459993.500000000, A.D. 2023-Feb-18 00:00:00.0000, -3.458347509377759E+08, 1.782110093496584E+08, -2.409235240938734E+07,
2460000.500000000, A.D. 2023-Feb-25 00:00:00.0000, -3.501917039116769E+08, 1.687946764242489E+08, -2.333586771757848E+07,
2460007.500000000, A.D. 2023-Mar-04 00:00:00.0000, -3.542609068058000E+08, 1.592395998952139E+08, -2.256020285120042E+07,
2460014.500000000, A.D. 2023-Mar-11 00:00:00.0000, -3.580381384199793E+08, 1.495532381572140E+08, -2.176593961368762E+07,
2460021.500000000, A.D. 2023-Mar-18 00:00:00.0000, -3.615192993864608E+08, 1.397431638774678E+08, -2.095367299792173E+07,
2460028.500000000, A.D. 2023-Mar-25 00:00:00.0000, -3.647004138842460E+08, 1.298170662287262E+08, -2.012401150259753E+07,
2460035.500000000, A.D. 2023-Apr-01 00:00:00.0000, -3.675776310310606E+08, 1.197827534076161E+08, -1.927757750539266E+07,
2460042.500000000, A.D. 2023-Apr-08 00:00:00.0000, -3.701472265823156E+08, 1.096481566517056E+08, -1.841500753577420E+07,
2460049.500000000, A.D. 2023-Apr-15 00:00:00.0000, -3.724056072903436E+08, 9.942133463731377E+07, -1.753695232315882E+07,
2460056.500000000, A.D. 2023-Apr-22 00:00:00.0000, -3.743493161320797E+08, 8.911047519633777E+07, -1.664407703552598E+07,
2460063.500000000, A.D. 2023-Apr-29 00:00:00.0000, -3.759750356816200E+08, 7.872389659480828E+07, -1.573706177377260E+07,
2460070.500000000, A.D. 2023-May-06 00:00:00.0000, -3.772795913971159E+08, 6.827005013886601E+07, -1.481660201283603E+07,
2460077.500000000, A.D. 2023-May-13 00:00:00.0000, -3.782599558118910E+08, 5.775752319779187E+07, -1.388340897174662E+07,
2460084.500000000, A.D. 2023-May-20 00:00:00.0000, -3.789132534077258E+08, 4.719504213624540E+07, -1.293820997265860E+07,
2460091.500000000, A.D. 2023-May-27 00:00:00.0000, -3.792367659868686E+08, 3.659147510523549E+07, -1.198174880695173E+07,
2460098.500000000, A.D. 2023-Jun-03 00:00:00.0000, -3.792279384982411E+08, 2.595583469195809E+07, -1.101478610992715E+07,
2460105.500000000, A.D. 2023-Jun-10 00:00:00.0000, -3.788843853125109E+08, 1.529728038760957E+07, -1.003809974651592E+07,
2460112.500000000, A.D. 2023-Jun-17 00:00:00.0000, -3.782038968782911E+08, 4.625120787314191E+06, -9.052485220365159E+06,
2460119.500000000, A.D. 2023-Jun-24 00:00:00.0000, -3.771844464595504E+08, -6.051184447194175E+06, -8.058756129848023E+06,
2460126.500000000, A.D. 2023-Jul-01 00:00:00.0000, -3.758241967177561E+08, -1.672202206072126E+07, -7.057744624472608E+06,
2460133.500000000, A.D. 2023-Jul-08 00:00:00.0000, -3.741215078268638E+08, -2.737762132236733E+07, -6.050301638371058E+06,
2460140.500000000, A.D. 2023-Jul-15 00:00:00.0000, -3.720749484134897E+08, -3.800805165318474E+07, -5.037297012386087E+06,
2460147.500000000, A.D. 2023-Jul-22 00:00:00.0000, -3.696833058181583E+08, -4.860322283508597E+07, -4.019619909337506E+06,
$$EOE